SL-8 R/B                
1 15483U 85006B   26155.15132666  .00000322  00000+0  11547-3 0  9996
2 15483  74.0449 102.0517 0018409 351.6250 108.2577 14.37828831166458
SL-12 R/B(2)            
1 15772U 85042D   26154.66343726  .00000110  00000+0  70829-4 0  9997
2 15772  71.1086 266.0874 0035522 348.3603 110.8497 14.22003233126610
SL-14 R/B               
1 15945U 85069B   26154.90845864  .00000482  00000+0  51617-4 0  9991
2 15945  82.5262 303.8553 0017230 266.4790  93.4456 14.86504675185646
SL-16 R/B               
1 16182U 85097B   26154.64199998  .00000186  00000+0  11710-3 0  9997
2 16182  71.0036 319.5954 0005902 138.0883 295.9848 14.16611206 99405
SL-14 R/B               
1 16496U 86006B   26155.13120736  .00000678  00000+0  69208-4 0  9997
2 16496  82.5264 178.3997 0075978 347.2925  12.6373 14.86932225162055
COSMOS 1743             
1 16719U 86034A   26154.98642417  .00046451  00000+0  45836-3 0  9992
2 16719  82.5276 342.7560 0003515 335.3214  24.7877 15.65721268193728
SL-14 R/B               
1 16792U 86046B   26155.08670762  .00000438  00000+0  47586-4 0  9992
2 16792  82.4818 358.5557 0021807 304.6785  55.2376 14.85662252139234
SL-14 R/B               
1 16882U 86055B   26155.09009172  .00000522  00000+0  57205-4 0  9997
2 16882  82.5214  45.4459 0020076  49.4350  68.7499 14.85713689132191
AJISAI (EGS)            
1 16908U 86061A   26155.29013156 -.00000091  00000+0  44610-4 0  9990
2 16908  50.0065 187.0547 0011292 147.9081 298.3818 12.44516730478785
SL-14 R/B               
1 17567U 87024B   26155.08875156  .00000466  00000+0  50204-4 0  9996
2 17567  82.5286  11.5634 0017608 339.3189  20.7312 14.86204472100966
COSMOS 1833             
1 17589U 87027A   26155.08293892  .00000253  00000+0  16110-3 0  9995
2 17589  70.9147 144.4136 0022502  76.9923 283.3708 14.13040386 22522
SL-16 R/B               
1 17590U 87027B   26155.08746876  .00000188  00000+0  11697-3 0  9994
2 17590  71.0024  94.4324 0005841 327.9702  32.1066 14.17169918 27589
SL-14 R/B               
1 17912U 87038B   26155.12807827  .00000444  00000+0  48578-4 0  9997
2 17912  82.5019 215.3725 0017923 236.2410 123.7099 14.85437380 92063
COSMOS 1844             
1 17973U 87041A   26154.60078493 -.00000032  00000+0  88484-5 0  9994
2 17973  70.8993 212.9645 0033289 254.9966 104.7470 14.14570015 15737
SL-14 R/B               
1 18153U 87055B   26154.28173471  .00000528  00000+0  57773-4 0  9991
2 18153  82.4994 268.3368 0022182  90.7225 269.6533 14.85700189 82649
COSMOS 1867             
1 18187U 87060A   26155.06922654 -.00000030  00000+0  26315-4 0  9993
2 18187  65.0113  64.7957 0016202 281.9493  77.9775 14.31514318 32309
SL-14 R/B               
1 18749U 88001B   26154.28278350  .00000522  00000+0  57508-4 0  9996
2 18749  82.5122 114.8544 0016970 319.4199  40.5751 14.85598562 54731
COSMOS 1933             
1 18958U 88020A   26155.12327309  .00003776  00000+0  18103-3 0  9993
2 18958  82.5113 165.3713 0002255 246.5845 113.5152 15.18626787 63342
SL-3 R/B                
1 19046U 88032B   26155.21528244  .00005052  00000+0  23112-3 0  9991
2 19046  97.5253 138.2706 0023795 293.8287  66.0454 15.20737092 65254
SL-16 R/B               
1 19120U 88039B   26154.59212235  .00000058  00000+0  49959-4 0  9990
2 19120  71.0152 246.9042 0023023 213.0564 146.9124 14.19627836970571
COSMOS 1953             
1 19210U 88050A   26154.21790414  .00008458  00000+0  29172-3 0  9998
2 19210  82.5089  72.1173 0010830 170.8668 189.2771 15.29772927 50850
SL-8 R/B                
1 19257U 88053B   26154.58928132  .00000307  00000+0  10792-3 0  9995
2 19257  74.0476 314.1234 0019338 114.4979 314.5681 14.38961756988958
COSMOS 1975             
1 19573U 88093A   26155.06753167  .00008590  00000+0  30213-3 0  9990
2 19573  82.5198  30.8972 0010028 219.1188 140.9328 15.29148746 32605
SL-14 R/B               
1 19574U 88093B   26155.07796931  .00000505  00000+0  55138-4 0  9990
2 19574  82.5303 320.9536 0022103 110.8783 339.8809 14.85731101 13840
SL-16 R/B               
1 19650U 88102B   26154.65536252  .00000152  00000+0  10081-3 0  9992
2 19650  71.0002 330.6123 0016191 243.3704 116.5761 14.16165836939067
INTERCOSMOS 24          
1 20261U 89080A   26155.07026382  .00001020  00000+0  29102-3 0  9992
2 20261  82.6077  48.1779 1188294  92.3150 281.4182 12.59640417677670
SL-14 R/B               
1 20262U 89080C   26154.32298116  .00000570  00000+0  16948-3 0  9999
2 20262  82.5912 118.2136 1229574 349.1174   8.5361 12.50560014670855
DELTA 1 R/B             
1 20323U 89089B   26155.11436352  .00000421  00000+0  11277-3 0  9995
2 20323  97.0639 348.7641 0068139 208.3686 151.3796 14.50722446908261
ARIANE 40 R/B           
1 20443U 90005H   26155.11984136  .00000325  00000+0  11664-3 0  9999
2 20443  98.2964 213.1415 0008993 309.2117  50.8272 14.39920418905247
DELTA 2 R/B(1)          
1 20453U 90008B   26154.88182397  .00082628  00000+0  65995-3 0  9997
2 20453  35.6007 324.5326 0068452 348.4901  11.4272 15.66729269939614
